OSCAR 7 (AO-7)          
1 07530U 74089B   26158.97777992 -.00000041  00000+0  32521-4 0  9994
2 07530 101.9901 172.1282 0012482 147.3019 326.2175 12.53697915359363
PHASE 3B (AO-10)        
1 14129U 83058B   26158.17238869 -.00000194  00000+0  00000+0 0  9990
2 14129  25.9048 221.2242 6014266 112.9115 319.2048  2.05872980295281
UOSAT 2 (UO-11)         
1 14781U 84021B   26159.16007713  .00001295  00000+0  13740-3 0  9998
2 14781  97.8053 124.8359 0006805 203.0845 157.0068 14.90761950255784
LUSAT (LO-19)           
1 20442U 90005G   26159.04225351  .00000130  00000+0  63300-4 0  9990
2 20442  98.8852 180.5956 0010667 229.5627 130.4626 14.34120497901086
EYESAT A (AO-27)        
1 22825U 93061C   26159.11953565  .00000109  00000+0  58271-4 0  9992
2 22825  98.6881 226.5360 0009379 123.2889 236.9193 14.30939997705702
ITAMSAT (IO-26)         
1 22826U 93061D   26159.10165256  .00000109  00000+0  58068-4 0  9998
2 22826  98.6828 226.4347 0010060 108.6508 251.5768 14.31366498706019
RADIO ROSTO (RS15)      
1 23439U 94085A   26159.15838367 -.00000034  00000+0  25039-3 0  9990
2 23439  64.8186 317.8186 0155676   5.5445 354.7159 11.27583625294888
JAS-2 (FO-29)           
1 24278U 96046B   26159.14317492 -.00000016  00000+0  16544-4 0  9993
2 24278  98.5249   9.2542 0350750 119.8386 243.8104 13.53273689471944
TECHSAT 1B (GO-32)      
1 25397U 98043D   26159.21376741  .00000063  00000+0  47383-4 0  9991
2 25397  99.0065 151.7461 0000556 186.8121 173.3049 14.24426649450058
ISS (ZARYA)             
1 25544U 98067A   26158.90128687  .00007994  00000+0  14961-3 0  9995
2 25544  51.6338 346.0598 0006926 145.2709 214.8733 15.49660544570312
PCSAT (NO-44)           
1 26931U 01043C   26159.00955970  .00000149  00000+0  86443-4 0  9999
2 26931  67.0513 268.0088 0006104 264.2771  95.7635 14.31952993289131
SAUDISAT 1C (SO-50)     
1 27607U 02058C   26159.11930839  .00001176  00000+0  15563-3 0  9991
2 27607  64.5503 157.0409 0075454 264.1381  95.1121 14.83028039263113
CUTE-1 (CO-55)          
1 27844U 03031E   26158.97516384  .00000321  00000+0  15786-3 0  9992
2 27844  98.6735 167.6499 0008926 205.5861 154.4877 14.24330292190364
CUBESAT XI-IV (CO-57)   
1 27848U 03031J   26158.95900340  .00000277  00000+0  14071-3 0  9999
2 27848  98.6766 167.3539 0008515 225.8669 134.1810 14.23616071190069
MOZHAETS 4 (RS22)       
1 27939U 03042A   26159.18576719  .00001072  00000+0  17345-3 0  9998
2 27939  98.3473 343.2905 0010221 301.9474 148.0144 14.73452249214220
CUBESAT XI-V            
1 28895U 05043F   26158.95798337  .00001615  00000+0  26180-3 0  9999
2 28895  98.2976 314.3867 0013088 231.5140 128.4893 14.72607812100399
CUTE-1.7+APD II (CO-65) 
1 32785U 08021C   26159.16671106  .00005482  00000+0  34706-3 0  9998
2 32785  97.8271 140.3984 0010361  65.0809 295.1495 15.09365068983838
SEEDS II (CO-66)        
1 32791U 08021J   26158.92960024  .00019726  00000+0  63151-3 0  9990
2 32791  97.7519 156.3875 0002465  31.6806 328.4582 15.32435639985878
YUBILEINY (RS30)        
1 32953U 08025A   26159.16539932 -.00000015  00000+0 -17633-3 0  9998
2 32953  82.5047   1.0532 0019249 334.1984  25.8134 12.43178714818578
KKS-1 (KISEKI)          
1 33499U 09002H   26159.14859988  .00001427  00000+0  18199-3 0  9998
2 33499  98.1193  81.4478 0007085 329.6951  30.3851 14.83101077934859
SWISSCUBE               
1 35932U 09051B   26159.00067639  .00001155  00000+0  23775-3 0  9999
2 35932  98.4042  66.7288 0005475 236.3791 123.6888 14.62465103887810
BEESAT-1                
1 35933U 09051C   26159.14224813  .00000873  00000+0  18503-3 0  9993
2 35933  98.3972  66.5271 0003900 253.0558 107.0215 14.61706135887867
ITUPSAT1                
1 35935U 09051E   26158.98819542  .00000873  00000+0  19037-3 0  9998
2 35935  98.4056  65.5723 0006075 268.4530  91.5974 14.60427678887398
XIWANG-1 (HOPE-1)       
1 36122U 09072B   26159.12398674  .00000008  00000+0  13799-3 0  9994
2 36122 100.4028 113.1011 0006779 254.7117 105.3246 13.16439701791817
O/OREOS (USA 219)       
1 37224U 10062C   26159.15514002  .00002416  00000+0  23377-3 0  9995
2 37224  71.9703 100.7971 0012372  82.8992 277.3584 14.93705546115293
JUGNU                   
1 37839U 11058B   26158.90312382  .00000446  00000+0  93393-4 0  9999
2 37839  19.9622   4.8301 0018516 333.9844  55.7374 14.13774468757715
SRMSAT                  
1 37841U 11058D   26159.20087963  .00000378  00000+0  61376-4 0  9990
2 37841  19.9708 113.8593 0011953 105.3030 101.4235 14.11573773756542
STRAND-1                
1 39090U 13009E   26159.00516148  .00000318  00000+0  12142-3 0  9996
2 39090  98.3920 339.4657 0007416 256.8127 103.2233 14.37158036695743
ZACUBE-1 (TSHEPISOSAT)  
1 39417U 13066B   26159.14203030  .00004487  00000+0  34934-3 0  9994
2 39417  97.8095 121.4299 0039989 279.5341  80.1364 15.01133704679370
GOMX-1                  
1 39430U 13066Q   26159.19751727  .00002267  00000+0  34369-3 0  9991
2 39430  97.6492   0.2273 0130096 106.0930 255.4645 14.69426826668593
